start=new Date('2022-02-06T00:00:00.000Z').valueOf();
sats=[{"ARG_OF_PERICENTER":"56.7287","SEMIMAJOR_AXIS":"6925.412","APOAPSIS":"548.431","OBJECT_NAME":"STARLINK-2312","ECCENTRICITY":"0.00016660","TLE_LINE2":"2 47980  53.0554 114.4252 0001666  56.7287 295.4545 15.06379186  3581","PERIOD":"95.593","EPHEMERIS_TYPE":"0","SITE":"AFETR","CENTER_NAME":"EARTH","TIME_SYSTEM":"UTC","MEAN_ANOMALY":"295.4545","RA_OF_ASC_NODE":"114.4252","REF_FRAME":"TEME","MEAN_MOTION_DDOT":"0.0000000000000","COUNTRY_CODE":"US","REV_AT_EPOCH":"358","RCS_SIZE":"LARGE","TLE_LINE1":"1 47980U 21024D   22036.58334491  .00038631  00000-0  25996-2 0  9991","EPOCH":"2022-02-05T14:00:01.000224","GP_ID":"195367386","BSTAR":"0.00259960000000","MEAN_ELEMENT_THEORY":"SGP4","CLASSIFICATION_TYPE":"U","FILE":"3292709","INCLINATION":"53.0554","NORAD_CAT_ID":"47980","MEAN_MOTION_DOT":"0.00038631","LAUNCH_DATE":"2021-03-24","DECAY_DATE":null,"OBJECT_ID":"2021-024D","OBJECT_TYPE":"PAYLOAD","MEAN_MOTION":"15.06379186","PERIAPSIS":"546.124","ELEMENT_SET_NO":"999"},{"ECCENTRICITY":"0.00017000","TLE_LINE2":"2 47981  53.0519 198.6445 0001700  80.5768 279.5413 15.06397752 49013","SITE":"AFETR","CENTER_NAME":"EARTH","EPHEMERIS_TYPE":"0","PERIOD":"95.592","SEMIMAJOR_AXIS":"6925.355","ARG_OF_PERICENTER":"80.5768","APOAPSIS":"548.398","OBJECT_NAME":"STARLINK-2303","REV_AT_EPOCH":"4901","COUNTRY_CODE":"US","TLE_LINE1":"1 47981U 21024E   22036.76037848 -.00000652  00000-0 -24873-4 0  9997","RCS_SIZE":"LARGE","TIME_SYSTEM":"UTC","REF_FRAME":"TEME","MEAN_MOTION_DDOT":"0.0000000000000","MEAN_ANOMALY":"279.5413","RA_OF_ASC_NODE":"198.6445","NORAD_CAT_ID":"47981","FILE":"3292933","INCLINATION":"53.0519","LAUNCH_DATE":"2021-03-24","MEAN_MOTION_DOT":"-0.00000652","EPOCH":"2022-02-05T18:14:56.700672","GP_ID":"195377549","CLASSIFICATION_TYPE":"U","BSTAR":"-0.00002487300000","MEAN_ELEMENT_THEORY":"SGP4","PERIAPSIS":"546.043","MEAN_MOTION":"15.06397752","ELEMENT_SET_NO":"999","DECAY_DATE":null,"OBJECT_TYPE":"PAYLOAD","OBJECT_ID":"2021-024E"},{"RCS_SIZE":"LARGE","TLE_LINE1":"1 47982U 21024F   22036.58334491  .00023971  00000-0  16235-2 0  9990","COUNTRY_CODE":"US","REV_AT_EPOCH":"359","MEAN_ANOMALY":"180.8863","RA_OF_ASC_NODE":"129.4274","MEAN_MOTION_DDOT":"0.0000000000000","REF_FRAME":"TEME","TIME_SYSTEM":"UTC","PERIOD":"95.593","EPHEMERIS_TYPE":"0","SITE":"AFETR","CENTER_NAME":"EARTH","ECCENTRICITY":"0.00018680","TLE_LINE2":"2 47982  53.0535 129.4274 0001868  43.7641 180.8863 15.06381626  3599","OBJECT_NAME":"STARLINK-2317","ARG_OF_PERICENTER":"43.7641","SEMIMAJOR_AXIS":"6925.405","APOAPSIS":"548.564","ELEMENT_SET_NO":"999","MEAN_MOTION":"15.06381626","PERIAPSIS":"545.976","DECAY_DATE":null,"OBJECT_ID":"2021-024F","OBJECT_TYPE":"PAYLOAD","MEAN_MOTION_DOT":"0.00023971","LAUNCH_DATE":"2021-03-24","INCLINATION":"53.0535","FILE":"3292709","NORAD_CAT_ID":"47982","BSTAR":"0.00162350000000","MEAN_ELEMENT_THEORY":"SGP4","CLASSIFICATION_TYPE":"U","EPOCH":"2022-02-05T14:00:01.000224","GP_ID":"195368388"},{"MEAN_MOTION":"15.06389183","PERIAPSIS":"546.378","ELEMENT_SET_NO":"999","OBJECT_ID":"2021-024J","OBJECT_TYPE":"PAYLOAD","DECAY_DATE":null,"FILE":"3292709","INCLINATION":"53.0544","NORAD_CAT_ID":"47985","MEAN_MOTION_DOT":"0.00003763","LAUNCH_DATE":"2021-03-24","GP_ID":"195368633","EPOCH":"2022-02-05T14:00:01.000224","MEAN_ELEMENT_THEORY":"SGP4","BSTAR":"0.00027146000000","CLASSIFICATION_TYPE":"U","COUNTRY_CODE":"US","REV_AT_EPOCH":"358","RCS_SIZE":"LARGE","TLE_LINE1":"1 47985U 21024J   22036.58334491  .00003763  00000-0  27146-3 0  9994","TIME_SYSTEM":"UTC","RA_OF_ASC_NODE":"134.4327","MEAN_ANOMALY":"206.1479","REF_FRAME":"TEME","MEAN_MOTION_DDOT":"0.0000000000000","TLE_LINE2":"2 47985  53.0544 134.4327 0001254  75.9901 206.1479 15.06389183  3582","ECCENTRICITY":"0.00012540","EPHEMERIS_TYPE":"0","PERIOD":"95.593","SITE":"AFETR","CENTER_NAME":"EARTH","APOAPSIS":"548.115","SEMIMAJOR_AXIS":"6925.382","ARG_OF_PERICENTER":"75.9901","OBJECT_NAME":"STARLINK-2308"},{"RCS_SIZE":"LARGE","TLE_LINE1":"1 47986U 21024K   22036.91668981  .00060117  12461-4  19816-3 0  9995","COUNTRY_CODE":"US","REV_AT_EPOCH":"5130","MEAN_ANOMALY":"244.8570","RA_OF_ASC_NODE":"54.7383","REF_FRAME":"TEME","MEAN_MOTION_DDOT":"0.0000124610000","TIME_SYSTEM":"UTC","PERIOD":"90.516","EPHEMERIS_TYPE":"0","SITE":"AFETR","CENTER_NAME":"EARTH","ECCENTRICITY":"0.00010980","TLE_LINE2":"2 47986  53.0543  54.7383 0001098  93.7089 244.8570 15.90876592 51301","OBJECT_NAME":"STARLINK-2313","ARG_OF_PERICENTER":"93.7089","SEMIMAJOR_AXIS":"6677.966","APOAPSIS":"300.564","ELEMENT_SET_NO":"999","MEAN_MOTION":"15.90876592","PERIAPSIS":"299.097","DECAY_DATE":null,"OBJECT_ID":"2021-024K","OBJECT_TYPE":"PAYLOAD","MEAN_MOTION_DOT":"0.00060117","LAUNCH_DATE":"2021-03-24","FILE":"3292951","INCLINATION":"53.0543","NORAD_CAT_ID":"47986","BSTAR":"0.00019816000000","MEAN_ELEMENT_THEORY":"SGP4","CLASSIFICATION_TYPE":"U","EPOCH":"2022-02-05T22:00:01.999584","GP_ID":"195377255"},{"MEAN_MOTION_DDOT":"0.0000000000000","REF_FRAME":"TEME","RA_OF_ASC_NODE":"167.2525","MEAN_ANOMALY":"293.8071","TIME_SYSTEM":"UTC","TLE_LINE1":"1 47988U 21024M   22036.67616679  .00505062  00000-0  11647-1 0  9994","RCS_SIZE":"LARGE","REV_AT_EPOCH":"4944","COUNTRY_CODE":"US","OBJECT_NAME":"STARLINK-2306","APOAPSIS":"446.920","ARG_OF_PERICENTER":"66.3086","SEMIMAJOR_AXIS":"6824.054","SITE":"AFETR","CENTER_NAME":"EARTH","PERIOD":"93.503","EPHEMERIS_TYPE":"0","TLE_LINE2":"2 47988  53.0586 167.2525 0001468  66.3086 293.8071 15.40065203 49448","ECCENTRICITY":"0.00014680","OBJECT_ID":"2021-024M","OBJECT_TYPE":"PAYLOAD","DECAY_DATE":null,"ELEMENT_SET_NO":"999","PERIAPSIS":"444.917","MEAN_MOTION":"15.40065203","CLASSIFICATION_TYPE":"U","MEAN_ELEMENT_THEORY":"SGP4","BSTAR":"0.01164700000000","GP_ID":"195377581","EPOCH":"2022-02-05T16:13:40.810656","LAUNCH_DATE":"2021-03-24","MEAN_MOTION_DOT":"0.00505062","NORAD_CAT_ID":"47988","INCLINATION":"53.0586","FILE":"3292934"},{"OBJECT_TYPE":"PAYLOAD","OBJECT_ID":"2021-024N","DECAY_DATE":null,"PERIAPSIS":"546.504","MEAN_MOTION":"15.06385598","ELEMENT_SET_NO":"999","GP_ID":"195377577","EPOCH":"2022-02-05T22:00:01.999584","CLASSIFICATION_TYPE":"U","MEAN_ELEMENT_THEORY":"SGP4","BSTAR":"-0.00033627000000","NORAD_CAT_ID":"47989","FILE":"3292934","INCLINATION":"53.0537","LAUNCH_DATE":"2021-03-24","MEAN_MOTION_DOT":"-0.00005284","TIME_SYSTEM":"UTC","REF_FRAME":"TEME","MEAN_MOTION_DDOT":"0.0000000000000","RA_OF_ASC_NODE":"107.9287","MEAN_ANOMALY":"212.1547","REV_AT_EPOCH":"5029","COUNTRY_CODE":"US","TLE_LINE1":"1 47989U 21024N   22036.91668981 -.00005284  00000-0 -33627-3 0  9992","RCS_SIZE":"LARGE","APOAPSIS":"548.011","ARG_OF_PERICENTER":"76.2544","SEMIMAJOR_AXIS":"6925.393","OBJECT_NAME":"STARLINK-2305","TLE_LINE2":"2 47989  53.0537 107.9287 0001088  76.2544 212.1547 15.06385598 50299","ECCENTRICITY":"0.00010880","SITE":"AFETR","CENTER_NAME":"EARTH","PERIOD":"95.593","EPHEMERIS_TYPE":"0"},{"APOAPSIS":"548.432","SEMIMAJOR_AXIS":"6925.442","ARG_OF_PERICENTER":"61.6511","OBJECT_NAME":"STARLINK-2307","TLE_LINE2":"2 47990  53.0506 109.4431 0001625  61.6511 112.9217 15.06369660  3598","ECCENTRICITY":"0.00016250","PERIOD":"95.594","EPHEMERIS_TYPE":"0","SITE":"AFETR","CENTER_NAME":"EARTH","TIME_SYSTEM":"UTC","RA_OF_ASC_NODE":"109.4431","MEAN_ANOMALY":"112.9217","MEAN_MOTION_DDOT":"0.0000000000000","REF_FRAME":"TEME","COUNTRY_CODE":"US","REV_AT_EPOCH":"359","RCS_SIZE":"LARGE","TLE_LINE1":"1 47990U 21024P   22036.58334491  .00046944  00000-0  31521-2 0  9999","GP_ID":"195369133","EPOCH":"2022-02-05T14:00:01.000224","MEAN_ELEMENT_THEORY":"SGP4","BSTAR":"0.00315210000000","CLASSIFICATION_TYPE":"U","FILE":"3292709","INCLINATION":"53.0506","NORAD_CAT_ID":"47990","MEAN_MOTION_DOT":"0.00046944","LAUNCH_DATE":"2021-03-24","OBJECT_TYPE":"PAYLOAD","OBJECT_ID":"2021-024P","DECAY_DATE":null,"MEAN_MOTION":"15.06369660","PERIAPSIS":"546.181","ELEMENT_SET_NO":"999"},{"REF_FRAME":"TEME","MEAN_MOTION_DDOT":"0.0000000000000","MEAN_ANOMALY":"138.6597","RA_OF_ASC_NODE":"124.2319","TIME_SYSTEM":"UTC","TLE_LINE1":"1 47991U 21024Q   22036.58334491 -.00019937  00000-0 -13825-2 0  9991","RCS_SIZE":"LARGE","REV_AT_EPOCH":"358","COUNTRY_CODE":"US","OBJECT_NAME":"STARLINK-2279","ARG_OF_PERICENTER":"82.5166","SEMIMAJOR_AXIS":"6930.314","APOAPSIS":"553.121","SITE":"AFETR","CENTER_NAME":"EARTH","PERIOD":"95.695","EPHEMERIS_TYPE":"0","ECCENTRICITY":"0.00013600","TLE_LINE2":"2 47991  53.0541 124.2319 0001360  82.5166 138.6597 15.04781391  3584","DECAY_DATE":null,"OBJECT_TYPE":"PAYLOAD","OBJECT_ID":"2021-024Q","ELEMENT_SET_NO":"999","PERIAPSIS":"551.236","MEAN_MOTION":"15.04781391","CLASSIFICATION_TYPE":"U","BSTAR":"-0.00138250000000","MEAN_ELEMENT_THEORY":"SGP4","EPOCH":"2022-02-05T14:00:01.000224","GP_ID":"195367387","LAUNCH_DATE":"2021-03-24","MEAN_MOTION_DOT":"-0.00019937","NORAD_CAT_ID":"47991","FILE":"3292709","INCLINATION":"53.0541"},{"OBJECT_ID":"2021-024R","OBJECT_TYPE":"PAYLOAD","DECAY_DATE":null,"ELEMENT_SET_NO":"999","MEAN_MOTION":"15.06380759","PERIAPSIS":"546.336","MEAN_ELEMENT_THEORY":"SGP4","BSTAR":"0.00218280000000","CLASSIFICATION_TYPE":"U","GP_ID":"195367637","EPOCH":"2022-02-05T14:00:01.000224","MEAN_MOTION_DOT":"0.00032364","LAUNCH_DATE":"2021-03-24","FILE":"3292709","INCLINATION":"53.0553","NORAD_CAT_ID":"47992","RA_OF_ASC_NODE":"119.4363","MEAN_ANOMALY":"341.1621","REF_FRAME":"TEME","MEAN_MOTION_DDOT":"0.0000000000000","TIME_SYSTEM":"UTC","RCS_SIZE":"LARGE","TLE_LINE1":"1 47992U 21024R   22036.58334491  .00032364  00000-0  21828-2 0  9991","COUNTRY_CODE":"US","REV_AT_EPOCH":"359","OBJECT_NAME":"STARLINK-2229","APOAPSIS":"548.209","SEMIMAJOR_AXIS":"6925.408","ARG_OF_PERICENTER":"63.5429","EPHEMERIS_TYPE":"0","PERIOD":"95.593","SITE":"AFETR","CENTER_NAME":"EARTH","TLE_LINE2":"2 47992  53.0553 119.4363 0001352  63.5429 341.1621 15.06380759  3590","ECCENTRICITY":"0.00013520"}];
